OBJECT_NAME,OBJECT_ID,EPOCH,MEAN_MOTION,ECCENTRICITY,INCLINATION,RA_OF_ASC_NODE,ARG_OF_PERICENTER,MEAN_ANOMALY,EPHEMERIS_TYPE,CLASSIFICATION_TYPE,NORAD_CAT_ID,ELEMENT_SET_NO,REV_AT_EPOCH,BSTAR,MEAN_MOTION_DOT,MEAN_MOTION_DDOT
HYLAS 2,2012-043B,2026-06-04T13:13:03.032256,1.00272827,.0002838,2.3944,81.2180,13.7653,283.7064,0,U,38741,999,5064,0,-.246E-5,0
INTELSAT 21 (IS-21),2012-045A,2026-06-04T13:17:10.137120,1.00268805,.0002238,0.0380,79.6448,351.8238,322.8223,0,U,38749,999,5039,0,-.273E-5,0
ASTRA 2F,2012-051A,2026-06-04T17:48:44.689824,1.00272042,.0000805,0.0528,257.9330,265.4243,25.1910,0,U,38778,999,4101,0,.162E-5,0
GSAT-10,2012-051B,2026-06-04T16:58:26.584032,1.00272375,.0008076,0.0227,261.7006,186.3350,142.7533,0,U,38779,999,4997,0,-.153E-5,0
INTELSAT 23 (IS-23),2012-057A,2026-06-04T11:35:59.839008,1.00268362,.0000259,0.0131,304.8908,182.1184,246.9158,0,U,38867,999,4982,0,-.273E-5,0
BEIDOU-2 G6,2012-059A,2026-06-04T08:49:39.241056,1.00268705,.0010388,4.3894,73.6602,326.1663,69.3340,0,U,38953,999,4978,0,-.163E-5,0
LUCH-5B,2012-061A,2026-06-04T16:49:01.699104,1.00274312,.0001576,10.4545,50.0042,137.7410,301.3338,0,U,38977,999,4948,0,-.128E-5,0
YAMAL 300K,2012-061B,2026-06-04T17:51:12.098592,1.00276458,.000104,0.0134,279.9499,293.9935,130.0040,0,U,38978,999,4950,0,.84E-6,0
STAR ONE C3,2012-062A,2026-06-04T13:12:18.104256,1.00271247,.0002677,0.0175,330.4709,117.6745,287.9411,0,U,38991,999,4963,0,-.237E-5,0
EUTELSAT 21B,2012-062B,2026-06-04T17:40:45.388416,1.00269313,.0003048,0.0666,345.4341,82.7445,111.7781,0,U,38992,999,4970,0,.142E-5,0
ECHOSTAR 16,2012-065A,2026-06-04T16:39:32.641920,1.00274798,.0002093,0.0149,353.7381,95.7243,352.0763,0,U,39008,999,4951,0,0,0
ZHONGXING-12,2012-067A,2026-06-04T19:32:21.675264,1.00272089,.0003382,0.0479,97.4106,333.2887,203.1575,0,U,39017,999,4938,0,-.195E-5,0
EUTELSAT 70B,2012-069A,2026-06-04T17:49:24.724128,1.00271346,.0003948,0.0618,347.7459,79.1502,164.1297,0,U,39020,999,4938,0,-.31E-6,0
YAMAL 402,2012-070A,2026-06-04T21:14:38.206752,1.00272731,.0004032,1.2332,84.3133,347.3048,195.2666,0,U,39022,999,4927,0,.98E-6,0
SKYNET 5D,2012-075A,2026-06-04T18:02:41.725248,1.00271905,.0003954,0.0660,354.5086,87.0726,135.0607,0,U,39034,999,4903,0,.111E-5,0
MEXSAT 3,2012-075B,2026-06-04T14:45:59.735808,1.00276488,.0001081,0.0142,21.3966,48.0327,290.3409,0,U,39035,999,692,0,-.14E-6,0
TDRS 11,2013-004A,2026-06-04T18:42:06.952896,1.00278404,.0004992,3.5032,31.0579,20.7815,307.6874,0,U,39070,999,4656,0,.92E-6,0
AMAZONAS 3,2013-006A,2026-06-04T11:33:37.565856,1.00271898,.0002221,0.0341,189.6231,273.0491,262.6783,0,U,39078,999,4478,0,-.27E-5,0
AZERSPACE 1,2013-006B,2026-06-04T18:09:32.215104,1.00271340,.000147,0.0262,60.6050,36.7324,114.2345,0,U,39079,999,4868,0,.145E-5,0
SBIRS GEO-2 (USA 241),2013-011A,2026-06-04T11:36:52.256160,1.00271370,.0002058,4.4633,52.5026,13.1939,311.6442,0,U,39120,999,4840,0,-.275E-5,0
EUTELSAT 117 WEST A,2013-012A,2026-06-04T14:47:01.238784,1.00271923,.0002987,0.0356,53.3333,23.1427,281.5353,0,U,39122,999,4830,0,-.1E-7,0
ANIK G1,2013-014A,2026-06-04T14:41:57.062400,1.00272224,.0001909,0.0384,80.9444,345.7248,299.5695,0,U,39127,999,4812,0,-.62E-6,0
ZHONGXING-11,2013-020A,2026-06-04T20:53:48.357312,1.00270130,.0002542,0.0225,19.1036,55.2680,230.2851,0,U,39157,999,4777,0,-.278E-5,0
EUTELSAT 7B,2013-022A,2026-06-04T15:18:20.321280,1.00270684,.000527,0.0666,3.1218,32.3003,94.2501,0,U,39163,999,4782,0,.6E-6,0
WGS F5 (USA 243),2013-024A,2026-06-04T16:44:10.181184,1.00269105,.0000436,0.0187,313.3297,91.0926,47.2585,0,U,39168,999,4705,0,-.272E-5,0
SES-6,2013-026A,2026-06-04T11:39:29.505024,1.00270961,.0002883,0.0173,357.4469,83.9535,305.9136,0,U,39172,999,4759,0,-.249E-5,0
IRNSS-1A,2013-034A,2026-05-22T20:37:38.469792,1.00280263,.00166187,35.6649,64.2334,185.3754,355.4646,0,U,39199,999,4711,0,.59E-6,0
MUOS-2,2013-036A,2026-06-04T13:00:49.782240,1.00271022,.0050569,4.9711,45.5159,178.1694,36.4511,0,U,39206,999,4706,0,-.2E-7,0
ALPHASAT,2013-038A,2026-06-04T17:45:33.033024,1.00270036,.0002078,2.9977,1.4210,71.1036,111.9149,0,U,39215,999,4389,0,.145E-5,0
INSAT-3D,2013-038B,2026-06-04T15:53:02.167296,1.00269183,.0000903,1.8934,82.6977,347.8902,190.2815,0,U,39216,999,4695,0,-.327E-5,0
WGS F6 (USA 244),2013-041A,2026-06-04T15:00:08.265888,1.00269738,.0000336,0.0176,343.7499,59.1277,300.0628,0,U,39222,999,4593,0,.101E-5,0
ES'HAIL 1,2013-044A,2026-06-04T17:45:52.747776,1.00269661,.0002541,0.0479,353.0299,75.5932,116.5196,0,U,39233,999,4650,0,.155E-5,0
