HYLAS 2                 
1 38741U 12043B   26155.55072954 -.00000246  00000+0  00000+0 0  9990
2 38741   2.3944  81.2180 0002838  13.7653 283.7064  1.00272827 50647
INTELSAT 21 (IS-21)     
1 38749U 12045A   26155.55358955 -.00000273  00000+0  00000+0 0  9998
2 38749   0.0380  79.6448 0002238 351.8238 322.8223  1.00268805 50396
ASTRA 2F                
1 38778U 12051A   26155.74218391  .00000162  00000+0  00000+0 0  9993
2 38778   0.0528 257.9330 0000805 265.4243  25.1910  1.00272042 41010
GSAT-10                 
1 38779U 12051B   26155.70725213 -.00000153  00000+0  00000+0 0  9997
2 38779   0.0227 261.7006 0008076 186.3350 142.7533  1.00272375 49977
INTELSAT 23 (IS-23)     
1 38867U 12057A   26155.48333147 -.00000273  00000+0  00000+0 0  9990
2 38867   0.0131 304.8908 0000259 182.1184 246.9158  1.00268362 49828
BEIDOU-2 G6             
1 38953U 12059A   26155.36781529 -.00000163  00000+0  00000+0 0  9994
2 38953   4.3894  73.6602 0010388 326.1663  69.3340  1.00268705 49781
LUCH-5B                 
1 38977U 12061A   26155.70071411 -.00000128  00000+0  00000+0 0  9994
2 38977  10.4545  50.0042 0001576 137.7410 301.3338  1.00274312 49484
YAMAL 300K              
1 38978U 12061B   26155.74389003  .00000084  00000+0  00000+0 0  9998
2 38978   0.0134 279.9499 0001040 293.9935 130.0040  1.00276458 49508
STAR ONE C3             
1 38991U 12062A   26155.55020954 -.00000237  00000+0  00000+0 0  9991
2 38991   0.0175 330.4709 0002677 117.6745 287.9411  1.00271247 49632
EUTELSAT 21B            
1 38992U 12062B   26155.73663644  .00000142  00000+0  00000+0 0  9995
2 38992   0.0666 345.4341 0003048  82.7445 111.7781  1.00269313 49701
ECHOSTAR 16             
1 39008U 12065A   26155.69412780  .00000000  00000+0  00000+0 0  9998
2 39008   0.0149 353.7381 0002093  95.7243 352.0763  1.00274798 49513
ZHONGXING-12            
1 39017U 12067A   26155.81413976 -.00000195  00000+0  00000+0 0  9998
2 39017   0.0479  97.4106 0003382 333.2887 203.1575  1.00272089 49385
EUTELSAT 70B            
1 39020U 12069A   26155.74264727 -.00000031  00000+0  00000+0 0  9993
2 39020   0.0618 347.7459 0003948  79.1502 164.1297  1.00271346 49386
YAMAL 402               
1 39022U 12070A   26155.88516443  .00000098  00000+0  00000+0 0  9999
2 39022   1.2332  84.3133 0004032 347.3048 195.2666  1.00272731 49279
SKYNET 5D               
1 39034U 12075A   26155.75187182  .00000111  00000+0  00000+0 0  9993
2 39034   0.0660 354.5086 0003954  87.0726 135.0607  1.00271905 49038
MEXSAT 3                
1 39035U 12075B   26155.61527472 -.00000014  00000+0  00000+0 0  9992
2 39035   0.0142  21.3966 0001081  48.0327 290.3409  1.00276488  6920
TDRS 11                 
1 39070U 13004A   26155.77924714  .00000092  00000+0  00000+0 0  9996
2 39070   3.5032  31.0579 0004992  20.7815 307.6874  1.00278404 46568
AMAZONAS 3              
1 39078U 13006A   26155.48168479 -.00000270  00000+0  00000+0 0  9991
2 39078   0.0341 189.6231 0002221 273.0491 262.6783  1.00271898 44783
AZERSPACE 1             
1 39079U 13006B   26155.75662286  .00000145  00000+0  00000+0 0  9997
2 39079   0.0262  60.6050 0001470  36.7324 114.2345  1.00271340 48688
SBIRS GEO-2 (USA 241)   
1 39120U 13011A   26155.48393815 -.00000275  00000+0  00000+0 0  9994
2 39120   4.4633  52.5026 0002058  13.1939 311.6442  1.00271370 48406
EUTELSAT 117 WEST A     
1 39122U 13012A   26155.61598656 -.00000001  00000+0  00000+0 0  9999
2 39122   0.0356  53.3333 0002987  23.1427 281.5353  1.00271923 48305
ANIK G1                 
1 39127U 13014A   26155.61246600 -.00000062  00000+0  00000+0 0  9992
2 39127   0.0384  80.9444 0001909 345.7248 299.5695  1.00272224 48120
ZHONGXING-11            
1 39157U 13020A   26155.87069858 -.00000278  00000+0  00000+0 0  9997
2 39157   0.0225  19.1036 0002542  55.2680 230.2851  1.00270130 47775
EUTELSAT 7B             
1 39163U 13022A   26155.63773520  .00000060  00000+0  00000+0 0  9996
2 39163   0.0666   3.1218 0005270  32.3003  94.2501  1.00270684 47822
WGS F5 (USA 243)        
1 39168U 13024A   26155.69734006 -.00000272  00000+0  00000+0 0  9991
2 39168   0.0187 313.3297 0000436  91.0926  47.2585  1.00269105 47054
SES-6                   
1 39172U 13026A   26155.48575816 -.00000249  00000+0  00000+0 0  9991
2 39172   0.0173 357.4469 0002883  83.9535 305.9136  1.00270961 47595
IRNSS-1A                
1 39199U 13034A   26142.85947303  .00000059  00000+0  00000+0 0  9998
2 39199  35.6649  64.2334 0016618 185.3754 355.4646  1.00280263 47111
MUOS-2                  
1 39206U 13036A   26155.54224285 -.00000002  00000+0  00000+0 0  9995
2 39206   4.9711  45.5159 0050569 178.1694  36.4511  1.00271022 47066
ALPHASAT                
1 39215U 13038A   26155.73996566  .00000145  00000+0  00000+0 0  9993
2 39215   2.9977   1.4210 0002078  71.1036 111.9149  1.00270036 43898
INSAT-3D                
1 39216U 13038B   26155.66183064 -.00000327  00000+0  00000+0 0  9990
2 39216   1.8934  82.6977 0000903 347.8902 190.2815  1.00269183 46952
WGS F6 (USA 244)        
1 39222U 13041A   26155.62509567  .00000101  00000+0  00000+0 0  9996
2 39222   0.0176 343.7499 0000336  59.1277 300.0628  1.00269738 45932
ES'HAIL 1               
1 39233U 13044A   26155.74019384  .00000155  00000+0  00000+0 0  9996
2 39233   0.0479 353.0299 0002541  75.5932 116.5196  1.00269661 46501
